OBJECT_NAME,OBJECT_ID,EPOCH,MEAN_MOTION,ECCENTRICITY,INCLINATION,RA_OF_ASC_NODE,ARG_OF_PERICENTER,MEAN_ANOMALY,EPHEMERIS_TYPE,CLASSIFICATION_TYPE,NORAD_CAT_ID,ELEMENT_SET_NO,REV_AT_EPOCH,BSTAR,MEAN_MOTION_DOT,MEAN_MOTION_DDOT
STARLINK-30280,2023-122M,2026-07-04T21:24:55.698912,15.27597867,.00019046,43.0041,150.4333,259.0065,101.0573,0,U,57643,999,16013,.21756399E-3,.5733E-4,0
STARLINK-30247,2023-122N,2026-07-04T22:53:32.549280,15.27588167,.00014864,43.0024,150.0419,266.6278,93.4404,0,U,57644,999,16014,.12000987E-3,.3042E-4,0
STARLINK-30277,2023-122P,2026-07-04T21:43:02.199648,15.27542840,.00015514,43.0067,8.4336,270.9224,89.1450,0,U,57645,999,16180,.6795675E-4,.1606E-4,0
STARLINK-30265,2023-122Q,2026-07-04T22:38:44.380608,15.27581647,.00009702,43.0029,149.9586,280.0923,79.9819,0,U,57646,999,16014,.10492008E-3,.2626E-4,0
STARLINK-30286,2023-122R,2026-07-04T23:04:38.373600,15.27583682,.00014022,43.0039,150.0903,271.2264,88.8427,0,U,57647,999,16014,.11434386E-3,.2886E-4,0
STARLINK-30243,2023-122S,2026-07-04T09:23:07.420704,15.27596778,.00015296,43.0011,153.5452,275.8077,84.2600,0,U,57648,999,16005,.11800503E-3,.2988E-4,0
STARLINK-30299,2023-122U,2026-07-04T21:36:02.176416,15.27583853,.00013084,43.0033,150.4854,271.2618,88.8084,0,U,57650,999,16013,.94461583E-4,.2338E-4,0
STARLINK-30294,2023-122V,2026-07-05T05:02:51.251424,15.27580663,.00014467,43.0020,137.4960,260.4166,99.6522,0,U,57651,999,16031,.35858293E-4,.725E-5,0
STARLINK-30276,2023-122W,2026-07-03T23:52:39.531936,15.27580673,.0001471,43.0033,155.7294,272.1089,87.9594,0,U,57652,999,15999,.36086E-4,.731E-5,0
STARLINK-30289,2023-122X,2026-07-04T22:29:45.985056,15.27580773,.00016654,43.0032,139.6968,280.1571,79.9093,0,U,57653,999,16025,.11483045E-3,.2899E-4,0
STARLINK-30267,2023-124A,2026-07-03T13:14:13.824096,15.30350109,.0002361,53.1583,28.8574,58.3777,301.7454,0,U,57663,999,16130,.64351E-3,.18837E-3,0
STARLINK-30298,2023-124C,2026-07-04T19:30:56.420064,15.34448533,.00013945,53.1593,22.5306,68.2755,291.8396,0,U,57665,999,16150,.91595694E-3,.30746E-3,0
STARLINK-30301,2023-124D,2026-07-04T17:59:02.662368,15.34305209,.00027866,53.1582,83.5724,84.5482,275.5838,0,U,57666,999,16061,.21447036E-2,.72574E-3,0
STARLINK-30275,2023-124E,2026-07-04T23:08:46.735584,15.34408437,.00006032,53.1613,21.8482,38.5824,321.5222,0,U,57667,999,16152,.14116271E-3,.4398E-4,0
STARLINK-30278,2023-124F,2026-07-04T22:11:21.169248,15.34401357,.00013694,53.1605,22.3386,90.3497,269.7662,0,U,57668,999,16151,.2373338E-3,.7651E-4,0
STARLINK-30271,2023-124G,2026-07-04T22:45:34.193952,15.31723985,.00013778,53.1596,21.6410,79.1189,280.9967,0,U,57669,999,16152,.25667938E-3,.7614E-4,0
STARLINK-30322,2023-124H,2026-07-05T06:00:04.999968,15.34343659,.00011594,53.1595,20.5900,95.5985,8.2651,0,U,57670,999,502,.25150959E-3,.8116E-4,0
STARLINK-30296,2023-124J,2026-07-05T00:00:02.999808,15.34349443,.00008515,53.1595,21.8692,78.9576,94.4450,0,U,57671,999,496,.24724217E-2,.83962E-3,0
STARLINK-30274,2023-124K,2026-07-04T22:35:29.724000,15.34420982,.00013664,53.1593,21.9511,88.9749,271.1410,0,U,57672,999,16152,.39437019E-4,.957E-5,0
STARLINK-30316,2023-124L,2026-07-04T22:47:36.424896,15.34418624,.00012904,53.1599,21.9030,79.8736,280.2412,0,U,57673,999,16152,.30907639E-3,.10087E-3,0
STARLINK-30313,2023-124P,2026-07-05T00:00:02.999808,15.30137143,.00011766,53.1583,22.0896,91.0242,24.2456,0,U,57676,999,506,.2505423E-2,.74445E-3,0
STARLINK-30303,2023-124Q,2026-07-04T19:19:33.134304,15.30198897,.00020942,53.1572,22.4857,89.0301,271.0940,0,U,57677,999,16150,.86247202E-4,.2195E-4,0
STARLINK-30320,2023-124R,2026-07-04T21:46:13.033056,15.34396371,.00013999,53.1603,8.2543,78.4420,281.6740,0,U,57678,999,16171,-.86430976E-4,-.3295E-4,0
STARLINK-30321,2023-124S,2026-07-05T06:00:04.999968,15.34210438,.00013411,53.1605,20.5183,91.3228,152.0571,0,U,57679,999,502,.32000363E-2,.108661E-2,0
STARLINK-30283,2023-124T,2026-07-04T23:39:03.578112,15.30207666,.0001573,53.1619,22.1569,89.5674,270.5507,0,U,57680,999,16152,.14255798E-3,.3866E-4,0
STARLINK-30273,2023-124U,2026-07-04T22:52:17.957568,15.31725047,.00012871,53.1601,21.6788,92.1213,267.9936,0,U,57681,999,16152,.26991817E-3,.8026E-4,0
STARLINK-30297,2023-124V,2026-07-04T23:34:31.063008,15.30219960,.00011308,53.1618,22.2033,79.3496,280.7632,0,U,57682,999,16152,.21738217E-3,.6088E-4,0
STARLINK-30295,2023-124W,2026-07-04T23:05:20.142816,15.34572850,.00012943,53.1526,21.9947,87.5857,272.5294,0,U,57683,999,16152,.39058941E-3,.12915E-3,0
STARLINK-30288,2023-129A,2026-07-05T00:41:43.671552,15.27582837,.00015123,43.0041,175.6155,267.5069,92.5610,0,U,57698,999,15862,.64107314E-4,.1502E-4,0
STARLINK-30347,2023-129B,2026-07-04T23:42:34.955712,15.27583748,.00010729,43.0039,164.2325,267.5417,92.5312,0,U,57699,999,15875,.74552351E-4,.179E-4,0
STARLINK-30332,2023-129C,2026-07-05T01:17:19.490784,15.27569545,.00013831,43.0020,182.5927,251.8228,108.2473,0,U,57700,999,15840,.59204288E-4,.1367E-4,0
STARLINK-30345,2023-129D,2026-07-04T23:49:55.123104,15.27580416,.00012202,43.0014,175.3533,274.1268,85.9444,0,U,57701,999,15848,.10266387E-3,.2564E-4,0
STARLINK-30333,2023-129E,2026-07-05T00:56:18.973536,15.27590450,.0001452,43.0015,174.8398,269.0583,91.0103,0,U,57702,999,15863,.52066288E-4,.1171E-4,0
STARLINK-30336,2023-129F,2026-07-04T23:59:10.130784,15.27584912,.00010751,42.9995,175.4020,274.9841,85.0888,0,U,57703,999,15848,.93519656E-4,.2313E-4,0
STARLINK-30346,2023-129G,2026-07-04T23:33:15.655680,15.27589540,.00011371,43.0008,175.2672,273.9215,86.1506,0,U,57704,999,15848,.66964702E-4,.1582E-4,0
STARLINK-30327,2023-129K,2026-07-05T06:00:04.999968,15.41809595,.00278161,42.9945,135.0183,142.1398,54.2842,0,U,57707,999,512,.20722713E-2,.91831E-3,0
STARLINK-30315,2023-129L,2026-07-04T23:53:36.769344,15.27584410,.00015801,42.9994,175.3674,268.0695,91.9975,0,U,57708,999,15862,.96804489E-4,.2403E-4,0
STARLINK-30287,2023-129M,2026-07-04T23:38:49.273728,15.27600942,.00015984,43.0009,175.2937,274.8385,85.2285,0,U,57709,999,15862,-.1134549E-5,-.294E-5,0
STARLINK-30335,2023-129N,2026-07-04T23:44:22.023456,15.27592619,.00011181,43.0007,175.3181,270.5482,89.5241,0,U,57710,999,15862,.3299223E-4,.646E-5,0
STARLINK-30318,2023-129P,2026-07-04T10:54:28.126080,15.27579129,.00012824,43.0012,178.1769,274.8851,85.1855,0,U,57711,999,15840,.47768893E-4,.1053E-4,0
STARLINK-30348,2023-129Q,2026-07-05T00:10:16.324896,15.27608003,.00012114,42.9982,175.4530,271.6785,88.3928,0,U,57712,999,15862,.1147369E-2,.31473E-3,0
STARLINK-30349,2023-129R,2026-07-05T00:21:22.245120,15.27581881,.00010222,43.0031,175.5072,285.4752,74.5987,0,U,57713,999,15848,.61522456E-4,.1431E-4,0
STARLINK-30341,2023-129S,2026-07-05T01:25:13.311840,15.27591613,.00011576,43.0003,178.3793,270.1264,89.9455,0,U,57714,999,15859,.10764277E-3,.2702E-4,0
STARLINK-30300,2023-129T,2026-07-05T00:04:42.973824,15.27581956,.00012638,42.9995,175.4228,276.2523,83.8185,0,U,57715,999,15862,.75357907E-4,.1812E-4,0
STARLINK-30281,2023-129U,2026-07-05T00:36:09.892800,15.27587174,.00017265,43.0044,175.5880,276.6206,83.4449,0,U,57716,999,15848,.12296291E-3,.3124E-4,0
STARLINK-30325,2023-129V,2026-07-05T00:15:49.599936,15.27576056,.00008495,43.0014,175.4784,241.8984,118.1782,0,U,57717,999,15862,.26184546E-4,.459E-5,0
STARLINK-30338,2023-129W,2026-07-05T00:30:37.543968,15.27582976,.0001612,43.0055,175.5552,271.0427,89.0240,0,U,57718,999,15862,.60908009E-4,.1414E-4,0
STARLINK-30334,2023-129X,2026-07-05T00:25:04.172160,15.27584736,.00010668,43.0029,175.5270,278.7278,81.3453,0,U,57719,999,15847,.79456373E-4,.1925E-4,0
STARLINK-30375,2023-131A,2026-07-05T01:50:04.463520,15.27632224,.00016137,43.0032,214.6677,276.7412,83.3256,0,U,57732,999,15805,-.18987471E-3,-.5492E-4,0
STARLINK-30310,2023-131B,2026-07-05T03:53:41.017056,15.27581816,.00013925,43.0004,236.5816,268.4680,91.6012,0,U,57733,999,15780,.10615218E-3,.266E-4,0
STARLINK-30365,2023-131C,2026-07-04T20:26:18.640896,15.27583405,.00015704,43.0032,230.8622,272.0001,88.0671,0,U,57734,999,15783,.88345014E-4,.217E-4,0
STARLINK-30371,2023-131D,2026-07-05T03:46:17.196672,15.27591807,.00013698,42.9981,236.5434,260.6925,99.3772,0,U,57735,999,15779,.12676278E-3,.3229E-4,0
STARLINK-30352,2023-131E,2026-07-05T03:48:08.379648,15.27597747,.00014158,42.9992,236.5524,260.3921,99.6771,0,U,57736,999,15779,.34933232E-4,.7E-5,0
STARLINK-30344,2023-131F,2026-07-05T04:55:22.239264,15.06924532,.00029919,43.0010,249.6924,318.7624,41.2994,0,U,57737,999,15764,.28480672E-3,.4118E-4,0
STARLINK-30351,2023-131G,2026-07-04T19:51:10.052352,15.27590273,.00014711,43.0003,230.7121,270.2026,89.8657,0,U,57738,999,15783,.18509841E-3,.4836E-4,0
STARLINK-30242,2023-131H,2026-07-04T17:45:25.898976,15.27581982,.00014315,43.0006,202.6143,272.3425,87.7262,0,U,57739,999,15815,.99285583E-4,.2471E-4,0
STARLINK-30331,2023-131J,2026-07-04T22:06:02.716128,15.27591044,.00011294,43.0015,157.3420,241.8927,118.1811,0,U,57740,999,15870,-.3931214E-5,-.37E-5,0
STARLINK-30364,2023-131K,2026-07-05T03:38:14.626752,15.27568545,.00009639,42.9996,228.8445,262.7507,97.3235,0,U,57741,999,15788,.63482703E-4,.1485E-4,0
STARLINK-30308,2023-131L,2026-07-05T04:07:51.772800,15.27591331,.00008388,43.0009,229.0005,265.5548,94.5208,0,U,57742,999,15789,.5007368E-4,.1117E-4,0
STARLINK-30361,2023-131M,2026-07-05T03:47:29.695776,15.27586482,.00009854,42.9996,228.8917,269.6063,90.4676,0,U,57743,999,15787,.65484863E-4,.1541E-4,0
STARLINK-30363,2023-131N,2026-07-04T18:36:17.745696,15.27585594,.00013142,43.0000,216.7073,278.3689,81.7014,0,U,57744,999,15799,.12889658E-3,.3287E-4,0
STARLINK-30362,2023-131P,2026-07-05T03:16:17.280768,15.27561742,.0000966,43.0015,229.5827,239.2919,120.7837,0,U,57745,999,15787,.39125523E-4,.814E-5,0
STARLINK-30350,2023-131Q,2026-07-05T02:34:24.424896,15.27575154,.00017084,43.0022,225.9521,272.9770,87.0886,0,U,57746,999,15791,.22105005E-3,.5825E-4,0
STARLINK-30307,2023-131R,2026-07-04T20:33:43.403904,15.27589240,.00013604,43.0027,230.9249,271.9121,88.1575,0,U,57747,999,15783,.12146969E-3,.3083E-4,0
